{
  "type": "FeatureCollection",
  "features": [
    {
      "type": "Feature",
      "properties": {
        "norad_id": 35616,
        "name": "IRIDIUM 33 DEB",
        "group": "iridium-33-debris",
        "lat": -50.955676706956964,
        "lon": 169.5551048240379,
        "alt_km": 628.2550787190967,
        "timestamp": "2025-12-14T07:33:19.863720+00:00",
        "meta_object_name": "IRIDIUM 33 DEB",
        "meta_object_id": "1997-051QN",
        "meta_epoch": "2025-12-13T06:12:25.260480",
        "meta_mean_motion": 14.81841111,
        "meta_eccentricity": 0.00102457,
        "meta_inclination": 86.3535,
        "meta_ra_of_asc_node": 345.5275,
        "meta_arg_of_pericenter": 162.0013,
        "meta_mean_anomaly": 198.1574,
        "meta_ephemeris_type": 0,
        "meta_classification_type": "U",
        "meta_norad_cat_id": 35616,
        "meta_element_set_no": 999,
        "meta_rev_at_epoch": 87582,
        "meta_bstar": 0.0030119844,
        "meta_mean_motion_dot": 0.00023901,
        "meta_mean_motion_ddot": 0,
        "tle_line1": "1 35616U 97051QN  25347.25862570  .00023901  00000+0  30120-2 0  9991",
        "tle_line2": "2 35616  86.3535 345.5275 0010245 162.0013 198.1574 14.81841111875824"
      },
      "geometry": {
        "type": "Point",
        "coordinates": [
          169.5551048240379,
          -50.955676706956964
        ]
      }
    },
    {
      "type": "Feature",
      "properties": {
        "norad_id": 35618,
        "name": "IRIDIUM 33 DEB",
        "group": "iridium-33-debris",
        "lat": -9.871777615374937,
        "lon": 173.4523776992289,
        "alt_km": 743.6308393226955,
        "timestamp": "2025-12-14T07:33:19.863730+00:00",
        "meta_object_name": "IRIDIUM 33 DEB",
        "meta_object_id": "1997-051QQ",
        "meta_epoch": "2025-12-05T07:42:53.148672",
        "meta_mean_motion": 14.52258119,
        "meta_eccentricity": 0.00302089,
        "meta_inclination": 86.3407,
        "meta_ra_of_asc_node": 356.7447,
        "meta_arg_of_pericenter": 46.3254,
        "meta_mean_anomaly": 314.0448,
        "meta_ephemeris_type": 0,
        "meta_classification_type": "U",
        "meta_norad_cat_id": 35618,
        "meta_element_set_no": 999,
        "meta_rev_at_epoch": 65286,
        "meta_bstar": 0.00091388234,
        "meta_mean_motion_dot": 3.753e-05,
        "meta_mean_motion_ddot": 0,
        "tle_line1": "1 35618U 97051QQ  25339.32144848  .00003753  00000+0  91388-3 0  9990",
        "tle_line2": "2 35618  86.3407 356.7447 0030208  46.3254 314.0448 14.52258119652865"
      },
      "geometry": {
        "type": "Point",
        "coordinates": [
          173.4523776992289,
          -9.871777615374937
        ]
      }
    },
    {
      "type": "Feature",
      "properties": {
        "norad_id": 35620,
        "name": "IRIDIUM 33 DEB",
        "group": "iridium-33-debris",
        "lat": 86.2160221590352,
        "lon": -35.9349130984632,
        "alt_km": 853.391296084922,
        "timestamp": "2025-12-14T07:33:19.863741+00:00",
        "meta_object_name": "IRIDIUM 33 DEB",
        "meta_object_id": "1997-051QS",
        "meta_epoch": "2025-12-12T01:41:06.603648",
        "meta_mean_motion": 14.38023351,
        "meta_eccentricity": 0.01413324,
        "meta_inclination": 86.3886,
        "meta_ra_of_asc_node": 217.736,
        "meta_arg_of_pericenter": 261.1948,
        "meta_mean_anomaly": 97.3224,
        "meta_ephemeris_type": 0,
        "meta_classification_type": "U",
        "meta_norad_cat_id": 35620,
        "meta_element_set_no": 999,
        "meta_rev_at_epoch": 59956,
        "meta_bstar": 0.0071195038,
        "meta_mean_motion_dot": 0.00024261,
        "meta_mean_motion_ddot": 0,
        "tle_line1": "1 35620U 97051QS  25346.07021532  .00024261  00000+0  71195-2 0  9997",
        "tle_line2": "2 35620  86.3886 217.7360 0141332 261.1948  97.3224 14.38023351599569"
      },
      "geometry": {
        "type": "Point",
        "coordinates": [
          -35.9349130984632,
          86.2160221590352
        ]
      }
    },
    {
      "type": "Feature",
      "properties": {
        "norad_id": 35622,
        "name": "IRIDIUM 33 DEB",
        "group": "iridium-33-debris",
        "lat": -15.171069009823459,
        "lon": 83.85922754418212,
        "alt_km": 558.7999005529973,
        "timestamp": "2025-12-14T07:33:19.863751+00:00",
        "meta_object_name": "IRIDIUM 33 DEB",
        "meta_object_id": "1997-051QU",
        "meta_epoch": "2025-12-13T12:18:27.452736",
        "meta_mean_motion": 15.04855982,
        "meta_eccentricity": 0.00058138,
        "meta_inclination": 86.204,
        "meta_ra_of_asc_node": 263.2227,
        "meta_arg_of_pericenter": 326.3099,
        "meta_mean_anomaly": 206.7001,
        "meta_ephemeris_type": 0,
        "meta_classification_type": "U",
        "meta_norad_cat_id": 35622,
        "meta_element_set_no": 999,
        "meta_rev_at_epoch": 87371,
        "meta_bstar": 0.007661382,
        "meta_mean_motion_dot": 0.00109841,
        "meta_mean_motion_ddot": 0,
        "tle_line1": "1 35622U 97051QU  25347.51281774  .00109841  00000+0  76614-2 0  9994",
        "tle_line2": "2 35622  86.2040 263.2227 0005813 326.3099 206.7001 15.04855982873712"
      },
      "geometry": {
        "type": "Point",
        "coordinates": [
          83.85922754418212,
          -15.171069009823459
        ]
      }
    },
    {
      "type": "Feature",
      "properties": {
        "norad_id": 35628,
        "name": "IRIDIUM 33 DEB",
        "group": "iridium-33-debris",
        "lat": 6.600163832497722,
        "lon": -172.04885138015854,
        "alt_km": 677.9263543291563,
        "timestamp": "2025-12-14T07:33:19.863762+00:00",
        "meta_object_name": "IRIDIUM 33 DEB",
        "meta_object_id": "1997-051RA",
        "meta_epoch": "2025-12-12T18:46:03.477216",
        "meta_mean_motion": 14.67584351,
        "meta_eccentricity": 0.00103833,
        "meta_inclination": 86.3581,
        "meta_ra_of_asc_node": 9.0566,
        "meta_arg_of_pericenter": 342.8162,
        "meta_mean_anomaly": 17.2699,
        "meta_ephemeris_type": 0,
        "meta_classification_type": "U",
        "meta_norad_cat_id": 35628,
        "meta_element_set_no": 999,
        "meta_rev_at_epoch": 86447,
        "meta_bstar": 0.0018776311,
        "meta_mean_motion_dot": 0.00010694,
        "meta_mean_motion_ddot": 0,
        "tle_line1": "1 35628U 97051RA  25346.78198469  .00010694  00000+0  18776-2 0  9998",
        "tle_line2": "2 35628  86.3581   9.0566 0010383 342.8162  17.2699 14.67584351864471"
      },
      "geometry": {
        "type": "Point",
        "coordinates": [
          -172.04885138015854,
          6.600163832497722
        ]
      }
    },
    {
      "type": "Feature",
      "properties": {
        "norad_id": 35631,
        "name": "IRIDIUM 33 DEB",
        "group": "iridium-33-debris",
        "lat": -45.510734147412315,
        "lon": 16.58980458376981,
        "alt_km": 753.888117071142,
        "timestamp": "2025-12-14T07:33:19.863772+00:00",
        "meta_object_name": "IRIDIUM 33 DEB",
        "meta_object_id": "1997-051RD",
        "meta_epoch": "2025-12-13T08:35:52.941696",
        "meta_mean_motion": 14.47314352,
        "meta_eccentricity": 0.00190886,
        "meta_inclination": 86.3675,
        "meta_ra_of_asc_node": 20.7093,
        "meta_arg_of_pericenter": 116.1706,
        "meta_mean_anomaly": 257.5485,
        "meta_ephemeris_type": 0,
        "meta_classification_type": "U",
        "meta_norad_cat_id": 35631,
        "meta_element_set_no": 999,
        "meta_rev_at_epoch": 87206,
        "meta_bstar": 0.00058903545,
        "meta_mean_motion_dot": 2.18e-05,
        "meta_mean_motion_ddot": 0,
        "tle_line1": "1 35631U 97051RD  25347.35825164  .00002180  00000+0  58904-3 0  9994",
        "tle_line2": "2 35631  86.3675  20.7093 0019088 116.1706 257.5485 14.47314352872067"
      },
      "geometry": {
        "type": "Point",
        "coordinates": [
          16.58980458376981,
          -45.510734147412315
        ]
      }
    },
    {
      "type": "Feature",
      "properties": {
        "norad_id": 35680,
        "name": "IRIDIUM 33 DEB",
        "group": "iridium-33-debris",
        "lat": 44.82970366411096,
        "lon": -163.06028157257023,
        "alt_km": 898.7812711452243,
        "timestamp": "2025-12-14T07:33:19.863782+00:00",
        "meta_object_name": "IRIDIUM 33 DEB",
        "meta_object_id": "1997-051RJ",
        "meta_epoch": "2025-12-13T09:13:25.254912",
        "meta_mean_motion": 14.20938352,
        "meta_eccentricity": 0.01504857,
        "meta_inclination": 86.103,
        "meta_ra_of_asc_node": 21.2368,
        "meta_arg_of_pericenter": 276.4463,
        "meta_mean_anomaly": 142.7573,
        "meta_ephemeris_type": 0,
        "meta_classification_type": "U",
        "meta_norad_cat_id": 35680,
        "meta_element_set_no": 999,
        "meta_rev_at_epoch": 60710,
        "meta_bstar": 0.0061528167,
        "meta_mean_motion_dot": 0.00014968,
        "meta_mean_motion_ddot": 0,
        "tle_line1": "1 35680U 97051RJ  25347.38432008  .00014968  00000+0  61528-2 0  9994",
        "tle_line2": "2 35680  86.1030  21.2368 0150485 276.4463 142.7573 14.20938352607109"
      },
      "geometry": {
        "type": "Point",
        "coordinates": [
          -163.06028157257023,
          44.82970366411096
        ]
      }
    }
  ]
}